[{"OBJECT_NAME":"STARLINK-36330","OBJECT_ID":"2026-026S","EPOCH":"2026-03-09T22:00:01.999584","MEAN_MOTION":15.4909485,"ECCENTRICITY":0.00019244,"INCLINATION":97.2845,"RA_OF_ASC_NODE":123.5221,"ARG_OF_PERICENTER":87.437,"MEAN_ANOMALY":168.7589,"EPHEMERIS_TYPE":0,"CLASSIFICATION_TYPE":"U","NORAD_CAT_ID":67737,"ELEMENT_SET_NO":999,"REV_AT_EPOCH":535,"BSTAR":-0.039487323,"MEAN_MOTION_DOT":-0.01922252,"MEAN_MOTION_DDOT":0},{"OBJECT_NAME":"FALCON 9 DEB","OBJECT_ID":"2022-064F","EPOCH":"2026-03-09T08:02:32.226144","MEAN_MOTION":15.35761911,"ECCENTRICITY":0.00059177,"INCLINATION":52.9885,"RA_OF_ASC_NODE":79.3339,"ARG_OF_PERICENTER":189.5626,"MEAN_ANOMALY":170.5264,"EPHEMERIS_TYPE":0,"CLASSIFICATION_TYPE":"U","NORAD_CAT_ID":52893,"ELEMENT_SET_NO":999,"REV_AT_EPOCH":16438,"BSTAR":0.00023134916,"MEAN_MOTION_DOT":7.792e-5,"MEAN_MOTION_DDOT":0}]
